{"fetched_at":"2026-07-05T17:36:16.681Z","source":"https://celestrak.org/NORAD/elements/gp.php?NAME=ASTROCAST&FORMAT=JSON","constellation":"astrocast","records":[{"OBJECT_NAME":"ASTROCAST 0.1","OBJECT_ID":"2018-099AS","EPOCH":"2026-07-05T04:57:59.704992","CLASSIFICATION_TYPE":"U","MEAN_MOTION":15.50888655,"ECCENTRICITY":0.0005576,"INCLINATION":97.4364,"RA_OF_ASC_NODE":265.2804,"ARG_OF_PERICENTER":154.7439,"MEAN_ANOMALY":205.4086,"EPHEMERIS_TYPE":0,"NORAD_CAT_ID":43798,"ELEMENT_SET_NO":999,"REV_AT_EPOCH":41722,"BSTAR":0.0010554959,"MEAN_MOTION_DOT":0.00061357,"MEAN_MOTION_DDOT":0},{"OBJECT_NAME":"ASTROCAST-0402","OBJECT_ID":"2023-001DE","EPOCH":"2026-07-05T05:45:34.221024","CLASSIFICATION_TYPE":"U","MEAN_MOTION":15.28869926,"ECCENTRICITY":0.00057048,"INCLINATION":97.5579,"RA_OF_ASC_NODE":279.7122,"ARG_OF_PERICENTER":162.2041,"MEAN_ANOMALY":197.9399,"EPHEMERIS_TYPE":0,"NORAD_CAT_ID":55109,"ELEMENT_SET_NO":999,"REV_AT_EPOCH":14729,"BSTAR":0.00047628327,"MEAN_MOTION_DOT":0.00013298,"MEAN_MOTION_DDOT":0},{"OBJECT_NAME":"ASTROCAST-0401","OBJECT_ID":"2023-001DF","EPOCH":"2026-07-04T17:29:01.879008","CLASSIFICATION_TYPE":"U","MEAN_MOTION":15.28320753,"ECCENTRICITY":0.00093111,"INCLINATION":97.5563,"RA_OF_ASC_NODE":279.0085,"ARG_OF_PERICENTER":139.1872,"MEAN_ANOMALY":221.0066,"EPHEMERIS_TYPE":0,"NORAD_CAT_ID":55110,"ELEMENT_SET_NO":999,"REV_AT_EPOCH":19388,"BSTAR":0.0007931037,"MEAN_MOTION_DOT":0.00021868,"MEAN_MOTION_DDOT":0},{"OBJECT_NAME":"ASTROCAST-0403","OBJECT_ID":"2023-001DG","EPOCH":"2026-07-05T05:28:19.951680","CLASSIFICATION_TYPE":"U","MEAN_MOTION":15.32043413,"ECCENTRICITY":0.00039642,"INCLINATION":97.562,"RA_OF_ASC_NODE":280.77,"ARG_OF_PERICENTER":252.9605,"MEAN_ANOMALY":107.1202,"EPHEMERIS_TYPE":0,"NORAD_CAT_ID":55111,"ELEMENT_SET_NO":999,"REV_AT_EPOCH":14732,"BSTAR":0.00086917795,"MEAN_MOTION_DOT":0.00026881,"MEAN_MOTION_DDOT":0},{"OBJECT_NAME":"ASTROCAST-0404","OBJECT_ID":"2023-001DH","EPOCH":"2026-07-04T17:58:22.614240","CLASSIFICATION_TYPE":"U","MEAN_MOTION":15.28705205,"ECCENTRICITY":0.0004873,"INCLINATION":97.5667,"RA_OF_ASC_NODE":280.1368,"ARG_OF_PERICENTER":292.5688,"MEAN_ANOMALY":67.5035,"EPHEMERIS_TYPE":0,"NORAD_CAT_ID":55112,"ELEMENT_SET_NO":999,"REV_AT_EPOCH":14721,"BSTAR":0.00044087775,"MEAN_MOTION_DOT":0.00012238,"MEAN_MOTION_DDOT":0}]}
